SL-16 R/B               
1 24298U 96051B   25305.48253957 -.00000068  00000+0 -10340-4 0  9991
2 24298  70.7587  86.6071 0017365 314.1942  45.7750 14.12392378503540
ORBVIEW 2 (SEASTAR)     
1 24883U 97037A   25305.43965787  .00000422  00000+0  16340-3 0  9999
2 24883  98.8441 101.4810 0003244  83.3880 276.7674 14.35368872490075
SL-16 R/B               
1 25400U 98043G   25305.61156697  .00000116  00000+0  67508-4 0  9998
2 25400  98.8052 253.2143 0010439  31.4309 328.7492 14.26009662420739
SL-16 R/B               
1 25407U 98045B   25305.65567262  .00000324  00000+0  18791-3 0  9995
2 25407  71.0099  90.8216 0009062 231.4770 128.5541 14.16165590408975
ISS (ZARYA)             
1 25544U 98067A   25305.52050362  .00011974  00000+0  21987-3 0  9999
2 25544  51.6344 346.5423 0004933   5.4437 354.6605 15.49679820536468
CZ-4B R/B               
1 25732U 99025C   25305.56698125  .00000093  00000+0  65942-4 0  9992
2 25732  98.6834 347.7549 0036960 355.1457 162.4543 14.18228050370008
OKEAN-O                 
1 25860U 99039A   25305.61893474  .00000964  00000+0  13425-3 0  9994
2 25860  97.9664   1.6657 0001758  75.6263 284.5143 14.80055324415446
SL-16 R/B               
1 25861U 99039B   25305.18097960  .00000845  00000+0  11459-3 0  9996
2 25861  98.0188 359.3175 0013888 318.4871  41.5286 14.81495911417833
DELTA 2 R/B             
1 25876U 99041E   25305.14393662  .00000939  00000+0  19005-3 0  9998
2 25876  51.7631  94.4636 0504661 329.1767  28.0406 14.11255799344872
HELIOS 1B               
1 25977U 99064A   25305.55875628  .00002136  00000+0  24484-3 0  9995
2 25977  98.1759 199.0098 0002481  98.8983 261.2513 14.87025362666216
TERRA                   
1 25994U 99068A   25305.65929703  .00000665  00000+0  14512-3 0  9999
2 25994  97.9809 358.8375 0001581 193.7668 332.1713 14.60879409376382
SL-16 R/B               
1 26070U 00006B   25305.56727971  .00000339  00000+0  19632-3 0  9998
2 26070  71.0043   7.2290 0016116   8.7288 351.4112 14.15798133330421
