CCSDS_OMM_VERS = 2.0
CREATION_DATE  = 
ORIGINATOR     = 

OBJECT_NAME    = SL-16 R/B
OBJECT_ID      = 1996-051B
CENTER_NAME    = EARTH
REF_FRAME      = TEME
TIME_SYSTEM    = UTC
MEAN_ELEMENT_THEORY = SGP/SGP4

EPOCH          = 2025-11-01T11:34:51.418848
MEAN_MOTION    = 14.12392378
ECCENTRICITY   = .00173652
INCLINATION    = 70.7587
RA_OF_ASC_NODE = 86.6071
ARG_OF_PERICENTER = 314.1942
MEAN_ANOMALY   = 45.7750

EPHEMERIS_TYPE = 0
CLASSIFICATION_TYPE = U
NORAD_CAT_ID   = 24298
ELEMENT_SET_NO = 999
REV_AT_EPOCH   = 50354
BSTAR          = -.1034036E-4
MEAN_MOTION_DOT = -.68E-6
MEAN_MOTION_DDOT = 0

CCSDS_OMM_VERS = 2.0
CREATION_DATE  = 
ORIGINATOR     = 

OBJECT_NAME    = ORBVIEW 2 (SEASTAR)
OBJECT_ID      = 1997-037A
CENTER_NAME    = EARTH
REF_FRAME      = TEME
TIME_SYSTEM    = UTC
MEAN_ELEMENT_THEORY = SGP/SGP4

EPOCH          = 2025-11-01T10:33:06.439968
MEAN_MOTION    = 14.35368872
ECCENTRICITY   = .00032446
INCLINATION    = 98.8441
RA_OF_ASC_NODE = 101.4810
ARG_OF_PERICENTER = 83.3880
MEAN_ANOMALY   = 276.7674

EPHEMERIS_TYPE = 0
CLASSIFICATION_TYPE = U
NORAD_CAT_ID   = 24883
ELEMENT_SET_NO = 999
REV_AT_EPOCH   = 49007
BSTAR          = .16339764E-3
MEAN_MOTION_DOT = .422E-5
MEAN_MOTION_DDOT = 0

CCSDS_OMM_VERS = 2.0
CREATION_DATE  = 
ORIGINATOR     = 

OBJECT_NAME    = SL-16 R/B
OBJECT_ID      = 1998-043G
CENTER_NAME    = EARTH
REF_FRAME      = TEME
TIME_SYSTEM    = UTC
MEAN_ELEMENT_THEORY = SGP/SGP4

EPOCH          = 2025-11-01T14:40:39.386208
MEAN_MOTION    = 14.26009662
ECCENTRICITY   = .0010439
INCLINATION    = 98.8052
RA_OF_ASC_NODE = 253.2143
ARG_OF_PERICENTER = 31.4309
MEAN_ANOMALY   = 328.7492

EPHEMERIS_TYPE = 0
CLASSIFICATION_TYPE = U
NORAD_CAT_ID   = 25400
ELEMENT_SET_NO = 999
REV_AT_EPOCH   = 42073
BSTAR          = .6750803E-4
MEAN_MOTION_DOT = .116E-5
MEAN_MOTION_DDOT = 0

CCSDS_OMM_VERS = 2.0
CREATION_DATE  = 
ORIGINATOR     = 

OBJECT_NAME    = SL-16 R/B
OBJECT_ID      = 1998-045B
CENTER_NAME    = EARTH
REF_FRAME      = TEME
TIME_SYSTEM    = UTC
MEAN_ELEMENT_THEORY = SGP/SGP4

EPOCH          = 2025-11-01T15:44:10.114368
MEAN_MOTION    = 14.16165590
ECCENTRICITY   = .00090626
INCLINATION    = 71.0099
RA_OF_ASC_NODE = 90.8216
ARG_OF_PERICENTER = 231.4770
MEAN_ANOMALY   = 128.5541

EPHEMERIS_TYPE = 0
CLASSIFICATION_TYPE = U
NORAD_CAT_ID   = 25407
ELEMENT_SET_NO = 999
REV_AT_EPOCH   = 40897
BSTAR          = .18790515E-3
MEAN_MOTION_DOT = .324E-5
MEAN_MOTION_DDOT = 0

CCSDS_OMM_VERS = 2.0
CREATION_DATE  = 
ORIGINATOR     = 

OBJECT_NAME    = ISS (ZARYA)
OBJECT_ID      = 1998-067A
CENTER_NAME    = EARTH
REF_FRAME      = TEME
TIME_SYSTEM    = UTC
MEAN_ELEMENT_THEORY = SGP/SGP4

EPOCH          = 2025-11-01T12:29:31.512768
MEAN_MOTION    = 15.49679820
ECCENTRICITY   = .00049334
INCLINATION    = 51.6344
RA_OF_ASC_NODE = 346.5423
ARG_OF_PERICENTER = 5.4437
MEAN_ANOMALY   = 354.6605

EPHEMERIS_TYPE = 0
CLASSIFICATION_TYPE = U
NORAD_CAT_ID   = 25544
ELEMENT_SET_NO = 999
REV_AT_EPOCH   = 53646
BSTAR          = .21987154E-3
MEAN_MOTION_DOT = .11974E-3
MEAN_MOTION_DDOT = 0

CCSDS_OMM_VERS = 2.0
CREATION_DATE  = 
ORIGINATOR     = 

OBJECT_NAME    = CZ-4B R/B
OBJECT_ID      = 1999-025C
CENTER_NAME    = EARTH
REF_FRAME      = TEME
TIME_SYSTEM    = UTC
MEAN_ELEMENT_THEORY = SGP/SGP4

EPOCH          = 2025-11-01T13:36:27.180000
MEAN_MOTION    = 14.18228050
ECCENTRICITY   = .00369602
INCLINATION    = 98.6834
RA_OF_ASC_NODE = 347.7549
ARG_OF_PERICENTER = 355.1457
MEAN_ANOMALY   = 162.4543

EPHEMERIS_TYPE = 0
CLASSIFICATION_TYPE = U
NORAD_CAT_ID   = 25732
ELEMENT_SET_NO = 999
REV_AT_EPOCH   = 37000
BSTAR          = .65941933E-4
MEAN_MOTION_DOT = .93E-6
MEAN_MOTION_DDOT = 0

CCSDS_OMM_VERS = 2.0
CREATION_DATE  = 
ORIGINATOR     = 

OBJECT_NAME    = OKEAN-O
OBJECT_ID      = 1999-039A
CENTER_NAME    = EARTH
REF_FRAME      = TEME
TIME_SYSTEM    = UTC
MEAN_ELEMENT_THEORY = SGP/SGP4

EPOCH          = 2025-11-01T14:51:15.961536
MEAN_MOTION    = 14.80055324
ECCENTRICITY   = .0001758
INCLINATION    = 97.9664
RA_OF_ASC_NODE = 1.6657
ARG_OF_PERICENTER = 75.6263
MEAN_ANOMALY   = 284.5143

EPHEMERIS_TYPE = 0
CLASSIFICATION_TYPE = U
NORAD_CAT_ID   = 25860
ELEMENT_SET_NO = 999
REV_AT_EPOCH   = 41544
BSTAR          = .13424646E-3
MEAN_MOTION_DOT = .964E-5
MEAN_MOTION_DDOT = 0

CCSDS_OMM_VERS = 2.0
CREATION_DATE  = 
ORIGINATOR     = 

OBJECT_NAME    = SL-16 R/B
OBJECT_ID      = 1999-039B
CENTER_NAME    = EARTH
REF_FRAME      = TEME
TIME_SYSTEM    = UTC
MEAN_ELEMENT_THEORY = SGP/SGP4

EPOCH          = 2025-11-01T04:20:36.637440
MEAN_MOTION    = 14.81495911
ECCENTRICITY   = .00138881
INCLINATION    = 98.0188
RA_OF_ASC_NODE = 359.3175
ARG_OF_PERICENTER = 318.4871
MEAN_ANOMALY   = 41.5286

EPHEMERIS_TYPE = 0
CLASSIFICATION_TYPE = U
NORAD_CAT_ID   = 25861
ELEMENT_SET_NO = 999
REV_AT_EPOCH   = 41783
BSTAR          = .11458544E-3
MEAN_MOTION_DOT = .845E-5
MEAN_MOTION_DDOT = 0

CCSDS_OMM_VERS = 2.0
CREATION_DATE  = 
ORIGINATOR     = 

OBJECT_NAME    = DELTA 2 R/B
OBJECT_ID      = 1999-041E
CENTER_NAME    = EARTH
REF_FRAME      = TEME
TIME_SYSTEM    = UTC
MEAN_ELEMENT_THEORY = SGP/SGP4

EPOCH          = 2025-11-01T03:27:16.123968
MEAN_MOTION    = 14.11255799
ECCENTRICITY   = .05046613
INCLINATION    = 51.7631
RA_OF_ASC_NODE = 94.4636
ARG_OF_PERICENTER = 329.1767
MEAN_ANOMALY   = 28.0406

EPHEMERIS_TYPE = 0
CLASSIFICATION_TYPE = U
NORAD_CAT_ID   = 25876
ELEMENT_SET_NO = 999
REV_AT_EPOCH   = 34487
BSTAR          = .19005261E-3
MEAN_MOTION_DOT = .939E-5
MEAN_MOTION_DDOT = 0

CCSDS_OMM_VERS = 2.0
CREATION_DATE  = 
ORIGINATOR     = 

OBJECT_NAME    = HELIOS 1B
OBJECT_ID      = 1999-064A
CENTER_NAME    = EARTH
REF_FRAME      = TEME
TIME_SYSTEM    = UTC
MEAN_ELEMENT_THEORY = SGP/SGP4

EPOCH          = 2025-11-01T13:24:36.542592
MEAN_MOTION    = 14.87025362
ECCENTRICITY   = .00024815
INCLINATION    = 98.1759
RA_OF_ASC_NODE = 199.0098
ARG_OF_PERICENTER = 98.8983
MEAN_ANOMALY   = 261.2513

EPHEMERIS_TYPE = 0
CLASSIFICATION_TYPE = U
NORAD_CAT_ID   = 25977
ELEMENT_SET_NO = 999
REV_AT_EPOCH   = 66621
BSTAR          = .24483517E-3
MEAN_MOTION_DOT = .2136E-4
MEAN_MOTION_DDOT = 0

CCSDS_OMM_VERS = 2.0
CREATION_DATE  = 
ORIGINATOR     = 

OBJECT_NAME    = TERRA
OBJECT_ID      = 1999-068A
CENTER_NAME    = EARTH
REF_FRAME      = TEME
TIME_SYSTEM    = UTC
MEAN_ELEMENT_THEORY = SGP/SGP4

EPOCH          = 2025-11-01T15:49:23.263392
MEAN_MOTION    = 14.60879409
ECCENTRICITY   = .00015814
INCLINATION    = 97.9809
RA_OF_ASC_NODE = 358.8375
ARG_OF_PERICENTER = 193.7668
MEAN_ANOMALY   = 332.1713

EPHEMERIS_TYPE = 0
CLASSIFICATION_TYPE = U
NORAD_CAT_ID   = 25994
ELEMENT_SET_NO = 999
REV_AT_EPOCH   = 37638
BSTAR          = .14511973E-3
MEAN_MOTION_DOT = .665E-5
MEAN_MOTION_DDOT = 0

CCSDS_OMM_VERS = 2.0
CREATION_DATE  = 
ORIGINATOR     = 

OBJECT_NAME    = SL-16 R/B
OBJECT_ID      = 2000-006B
CENTER_NAME    = EARTH
REF_FRAME      = TEME
TIME_SYSTEM    = UTC
MEAN_ELEMENT_THEORY = SGP/SGP4

EPOCH          = 2025-11-01T13:36:52.966944
MEAN_MOTION    = 14.15798133
ECCENTRICITY   = .00161169
INCLINATION    = 71.0043
RA_OF_ASC_NODE = 7.2290
ARG_OF_PERICENTER = 8.7288
MEAN_ANOMALY   = 351.4112

EPHEMERIS_TYPE = 0
CLASSIFICATION_TYPE = U
NORAD_CAT_ID   = 26070
ELEMENT_SET_NO = 999
REV_AT_EPOCH   = 33042
BSTAR          = .19631556E-3
MEAN_MOTION_DOT = .339E-5
MEAN_MOTION_DDOT = 0

